{
    "links": {
        "self": "http://www.neowsapp.com/rest/v1/neo/3465890?api_key=iIulBulltgU6a56xZRHN4H3l9WmuAYTsLGpBGhQ2"
    },
    "id": "3465890",
    "neo_reference_id": "3465890",
    "name": "(2009 QJ2)",
    "designation": "2009 QJ2",
    "nasa_jpl_url": "http://ssd.jpl.nasa.gov/sbdb.cgi?sstr=3465890",
    "absolute_magnitude_h": 23.5,
    "estimated_diameter": {
        "kilometers": {
            "estimated_diameter_min": 0.0530340723,
            "estimated_diameter_max": 0.1185877909
        },
        "meters": {
            "estimated_diameter_min": 53.0340723319,
            "estimated_diameter_max": 118.5877908577
        },
        "miles": {
            "estimated_diameter_min": 0.0329538346,
            "estimated_diameter_max": 0.0736870142
        },
        "feet": {
            "estimated_diameter_min": 173.9963058693,
            "estimated_diameter_max": 389.0675677576
        }
    },
    "is_potentially_hazardous_asteroid": false,
    "close_approach_data": [
        {
            "close_approach_date": "1905-09-13",
            "close_approach_date_full": "1905-Sep-13 21:21",
            "epoch_date_close_approach": -2029113540000,
            "relative_velocity": {
                "kilometers_per_second": "20.8214776064",
                "kilometers_per_hour": "74957.3193828625",
                "miles_per_hour": "46575.5632576459"
            },
            "miss_distance": {
                "astronomical": "0.4941801828",
                "lunar": "192.2360911092",
                "kilometers": "73928302.743090636",
                "miles": "45936917.2014013368"
            },
            "orbiting_body": "Earth"
        },
        {
            "close_approach_date": "2009-08-14",
            "close_approach_date_full": "2009-Aug-14 00:04",
            "epoch_date_close_approach": 1250208240000,
            "relative_velocity": {
                "kilometers_per_second": "9.3302418711",
                "kilometers_per_hour": "33588.8707359431",
                "miles_per_hour": "20870.8180414531"
            },
            "miss_distance": {
                "astronomical": "0.0518567643",
                "lunar": "20.1722813127",
                "kilometers": "7757661.484372041",
                "miles": "4820387.3220585258"
            },
            "orbiting_body": "Earth"
        },
        {
            "close_approach_date": "2158-06-20",
            "close_approach_date_full": "2158-Jun-20 20:35",
            "epoch_date_close_approach": 5947504500000,
            "relative_velocity": {
                "kilometers_per_second": "13.2253329719",
                "kilometers_per_hour": "47611.198698984",
                "miles_per_hour": "29583.7473249326"
            },
            "miss_distance": {
                "astronomical": "0.3174121559",
                "lunar": "123.4733286451",
                "kilometers": "47484182.434747933",
                "miles": "29505302.7858821554"
            },
            "orbiting_body": "Earth"
        }
    ],
    "orbital_data": {
        "orbit_id": "13",
        "orbit_determination_date": "2017-04-06 09:00:14",
        "first_observation_date": "2009-08-18",
        "last_observation_date": "2009-08-26",
        "data_arc_in_days": 8,
        "observations_used": 26,
        "orbit_uncertainty": "8",
        "minimum_orbit_intersection": ".0444062",
        "jupiter_tisserand_invariant": "3.970",
        "epoch_osculation": "2455063.5",
        "eccentricity": ".4158260474175351",
        "semi_major_axis": "1.775687626682648",
        "inclination": "11.96694573180194",
        "ascending_node_longitude": "143.4890559807021",
        "orbital_period": "864.2676940352666",
        "perihelion_distance": "1.037310459430979",
        "perihelion_argument": "156.1921045489686",
        "aphelion_distance": "2.514064793934317",
        "perihelion_time": "2455039.206124070309",
        "mean_anomaly": "10.11931302656314",
        "mean_motion": ".41653761037759",
        "equinox": "J2000",
        "orbit_class": {
            "orbit_class_type": "AMO",
            "orbit_class_description": "Near-Earth asteroid orbits similar to that of 1221 Amor",
            "orbit_class_range": "1.017 AU < q (perihelion) < 1.3 AU"
        }
    },
    "is_sentry_object": false
}